NAVSTAR 77 (USA 289)    
1 43873U 18109A   23240.16843016 -.00000003  00000+0  00000+0 0  9996
2 43873  55.1906 132.6492 0025551 191.4250 339.0840  2.00568376 34539
